[{"OBJECT_NAME":"STARLINK-1470","OBJECT_ID":"2020-038AU","EPOCH":"2026-03-09T14:36:51.476832","MEAN_MOTION":15.2807486,"ECCENTRICITY":0.0002444,"INCLINATION":53.048,"RA_OF_ASC_NODE":174.6971,"ARG_OF_PERICENTER":12.8687,"MEAN_ANOMALY":347.2373,"EPHEMERIS_TYPE":0,"CLASSIFICATION_TYPE":"U","NORAD_CAT_ID":45772,"ELEMENT_SET_NO":999,"REV_AT_EPOCH":31706,"BSTAR":0.0019687,"MEAN_MOTION_DOT":0.00054678,"MEAN_MOTION_DDOT":0},{"OBJECT_NAME":"OBJECT J","OBJECT_ID":"2025-155J","EPOCH":"2026-03-09T22:09:22.347648","MEAN_MOTION":15.2758258,"ECCENTRICITY":0.00088188,"INCLINATION":97.4475,"RA_OF_ASC_NODE":37.3123,"ARG_OF_PERICENTER":150.071,"MEAN_ANOMALY":210.1035,"EPHEMERIS_TYPE":0,"CLASSIFICATION_TYPE":"U","NORAD_CAT_ID":64884,"ELEMENT_SET_NO":999,"REV_AT_EPOCH":6559,"BSTAR":0.00051444498,"MEAN_MOTION_DOT":0.00013827,"MEAN_MOTION_DDOT":0}]
